{
    "links": {
        "self": "http://www.neowsapp.com/rest/v1/neo/3761743?api_key=iIulBulltgU6a56xZRHN4H3l9WmuAYTsLGpBGhQ2"
    },
    "id": "3761743",
    "neo_reference_id": "3761743",
    "name": "(2016 UD41)",
    "designation": "2016 UD41",
    "nasa_jpl_url": "http://ssd.jpl.nasa.gov/sbdb.cgi?sstr=3761743",
    "absolute_magnitude_h": 22.8,
    "estimated_diameter": {
        "kilometers": {
            "estimated_diameter_min": 0.0732073989,
            "estimated_diameter_max": 0.1636967205
        },
        "meters": {
            "estimated_diameter_min": 73.2073989347,
            "estimated_diameter_max": 163.696720474
        },
        "miles": {
            "estimated_diameter_min": 0.0454889547,
            "estimated_diameter_max": 0.1017163949
        },
        "feet": {
            "estimated_diameter_min": 240.181762721,
            "estimated_diameter_max": 537.0627483999
        }
    },
    "is_potentially_hazardous_asteroid": false,
    "close_approach_data": [
        {
            "close_approach_date": "2004-09-23",
            "close_approach_date_full": "2004-Sep-23 21:03",
            "epoch_date_close_approach": 1095973380000,
            "relative_velocity": {
                "kilometers_per_second": "4.6122377534",
                "kilometers_per_hour": "16604.0559123404",
                "miles_per_hour": "10317.1146306428"
            },
            "miss_distance": {
                "astronomical": "0.8374074967",
                "lunar": "325.7515162163",
                "kilometers": "125274377.828352029",
                "miles": "77841888.8061908402"
            },
            "orbiting_body": "Juptr"
        },
        {
            "close_approach_date": "2016-10-22",
            "close_approach_date_full": "2016-Oct-22 09:07",
            "epoch_date_close_approach": 1477127220000,
            "relative_velocity": {
                "kilometers_per_second": "10.9539145867",
                "kilometers_per_hour": "39434.0925121715",
                "miles_per_hour": "24502.8115390212"
            },
            "miss_distance": {
                "astronomical": "0.050163152",
                "lunar": "19.513466128",
                "kilometers": "7504300.69168624",
                "miles": "4662956.225660512"
            },
            "orbiting_body": "Earth"
        },
        {
            "close_approach_date": "2028-07-01",
            "close_approach_date_full": "2028-Jul-01 10:15",
            "epoch_date_close_approach": 1846059300000,
            "relative_velocity": {
                "kilometers_per_second": "4.4691832456",
                "kilometers_per_hour": "16089.0596841516",
                "miles_per_hour": "9997.1160020774"
            },
            "miss_distance": {
                "astronomical": "0.7873910122",
                "lunar": "306.2951037458",
                "kilometers": "117792018.282264014",
                "miles": "73192566.1762068332"
            },
            "orbiting_body": "Juptr"
        }
    ],
    "orbital_data": {
        "orbit_id": "14",
        "orbit_determination_date": "2017-08-10 06:20:13",
        "first_observation_date": "2016-10-17",
        "last_observation_date": "2016-11-23",
        "data_arc_in_days": 37,
        "observations_used": 149,
        "orbit_uncertainty": "7",
        "minimum_orbit_intersection": ".0220853",
        "jupiter_tisserand_invariant": "2.963",
        "epoch_osculation": "2459000.5",
        "eccentricity": ".6508884485041382",
        "semi_major_axis": "2.818683358843411",
        "inclination": "2.137132605889092",
        "ascending_node_longitude": "53.60326688519302",
        "orbital_period": "1728.493951159077",
        "perihelion_distance": ".9840349205813902",
        "perihelion_argument": "307.14290940",
        "aphelion_distance": "4.653331797105432",
        "perihelion_time": "2459390.718502292221",
        "mean_anomaly": "278.7277104840323",
        "mean_motion": ".2082737979838429",
        "equinox": "J2000",
        "orbit_class": {
            "orbit_class_type": "APO",
            "orbit_class_description": "Near-Earth asteroid orbits which cross the Earth’s orbit similar to that of 1862 Apollo",
            "orbit_class_range": "a (semi-major axis) > 1.0 AU; q (perihelion) < 1.017 AU"
        }
    },
    "is_sentry_object": false
}